M2 PATHFINDER           
1 45727U 20037E   26200.76387241  .00000969  00000+0  73151-4 0  9999
2 45727  97.8141  32.3642 0012479  48.1064 312.1224 15.04799480330393
NETSAT-4                
1 46504U 20068U   26200.45619172  .00009489  00000+0  20436-3 0  9997
2 46504  97.8610 211.3155 0005299 178.1363 181.9905 15.44843960320758
NETSAT-3                
1 46505U 20068V   26200.74602852  .00010058  00000+0  22498-3 0  9991
2 46505  97.8662 209.8063 0004395 192.4059 167.7080 15.43703581320707
NETSAT-1                
1 46506U 20068W   26200.46882532  .00006485  00000+0  19178-3 0  9996
2 46506  97.8761 203.4484 0002712 237.4544 122.6437 15.35303723320256
NETSAT-2                
1 46507U 20068X   26200.83643958  .00013760  00000+0  27168-3 0  9997
2 46507  97.8622 211.7484 0002835 189.2598 170.8598 15.47290720320780
GREENCUBE (IO-117)      
1 53109U 22080E   26200.24539926 -.00000003  00000+0  00000+0 0  9992
2 53109  70.1403 287.0980 0009085 282.5487  77.4156  6.42583325 94121
SITRO-AIS 5 (KATYS)     
1 57176U 23091L   26200.83999811  .00006157  00000+0  21363-3 0  9995
2 57176  97.5037 265.0630 0010148 355.6027   4.5122 15.30123138169336
SITRO-AIS 6 (CHIRKIN)   
1 57192U 23091AC  26200.83000902  .00005100  00000+0  19805-3 0  9992
2 57192  97.5046 263.9957 0010694   0.1260 359.9979 15.26485565169269
SITRO-AIS 8 (ANOKHIN)   
1 57193U 23091AD  26200.86382685  .00007689  00000+0  24401-3 0  9999
2 57193  97.5033 266.8121 0009030 350.7115   9.3958 15.32928547169459
SITRO-AIS 7 (FARTUSHNIY)
1 57194U 23091AE  26200.83999419  .00004962  00000+0  19469-3 0  9995
2 57194  97.5041 263.8134 0010657   1.4852 358.6415 15.26158099169251
SITRO-AIS 10 (BURDAEV)  
1 57199U 23091AK  26200.81936325  .00011058  00000+0  28165-3 0  9992
2 57199  97.5058 272.1670 0004512 320.4937  39.5979 15.39730594169781
SITRO-AIS 9 (SHCHUKIN)  
1 57201U 23091AM  26200.85644740  .00010735  00000+0  27811-3 0  9995
2 57201  97.5057 271.9086 0004779 320.8511  39.2388 15.39214149169772
SITRO-AIS 12 (SMIRENNIY)
1 57204U 23091AQ  26200.84083903  .00011029  00000+0  28293-3 0  9997
2 57204  97.5070 272.3805 0004405 312.5560  47.5313 15.39510240169795
SITRO-AIS 11 (SHEFFER)  
1 57208U 23091AU  26200.84501541  .00011168  00000+0  28231-3 0  9990
2 57208  97.5069 272.6523 0004334 311.9114  48.1761 15.39957442169812
SITRO-AIS 25            
1 59066U 24039R   26200.86939781  .00001328  00000+0  10547-3 0  9998
2 59066  95.3889 257.5505 0143181 213.0006 146.2224 14.93657986129606
SITRO-AIS 26            
1 59067U 24039S   26200.87528227  .00001328  00000+0  10593-3 0  9990
2 59067  95.3890 257.4454 0143513 213.5976 145.6088 14.93449153129595
SITRO-AIS 27            
1 59068U 24039T   26200.83630992  .00001861  00000+0  14599-3 0  9992
2 59068  95.3893 257.7057 0142634 212.2551 146.9894 14.93873724129616
SITRO-AIS 28            
1 59071U 24039U   26200.87999970  .00001402  00000+0  11065-3 0  9990
2 59071  95.3893 257.7848 0142510 211.9359 147.3171 14.93908012129626
GRBBETA                 
1 60237U 24128C   26200.80471338  .00001694  00000+0  12609-3 0  9999
2 60237  61.9889 101.8102 0036461 141.7044 218.6649 15.06826059111185
OOV-CUBE (TUBSAT-30)    
1 60240U 24128F   26200.72484720  .00000867  00000+0  79050-4 0  9998
2 60240  61.9942 112.1057 0040527 141.0093 219.3932 15.02883931111000
ROBUSTA-3A (MEDITERRAN*)
1 60243U 24128J   26200.80775929  .00003795  00000+0  22927-3 0  9997
2 60243  61.9861  92.8547 0037484 134.5709 225.8458 15.12023729111355
LASARSAT                
1 62391U 24247Q   26200.70716801  .00019740  00000+0  37176-3 0  9997
2 62391  44.9738  79.2000 0008114 194.5262 165.5396 15.48233791 88351
CROCUBE                 
1 62394U 24247T   26199.95347644  .00024965  00000+0  43401-3 0  9992
2 62394  44.9710  80.2241 0008147 196.1185 163.9448 15.50381393 88277
FORESAIL-1 PRIME        
1 66778U 25276DS  26200.73974311  .00002283  00000+0  11246-3 0  9992
2 66778  97.4184 273.4181 0002501  34.1668 325.9727 15.18959707 35343
KNACKSAT-2              
1 67683U 98067XZ  26200.22393463  .00034381  00000+0  37974-3 0  9993
2 67683  51.6273 132.9886 0008148 342.4900  17.5813 15.62683564 25284
