OBJECT_NAME,OBJECT_ID,EPOCH,MEAN_MOTION,ECCENTRICITY,INCLINATION,RA_OF_ASC_NODE,ARG_OF_PERICENTER,MEAN_ANOMALY,EPHEMERIS_TYPE,CLASSIFICATION_TYPE,NORAD_CAT_ID,ELEMENT_SET_NO,REV_AT_EPOCH,BSTAR,MEAN_MOTION_DOT,MEAN_MOTION_DDOT
M2 PATHFINDER,2020-037E,2026-07-19T18:19:58.576224,15.04799480,.0012479,97.8141,32.3642,48.1064,312.1224,0,U,45727,999,33039,.73151E-4,.969E-5,0
NETSAT-4,2020-068U,2026-07-19T10:56:54.964608,15.44843960,.0005299,97.8610,211.3155,178.1363,181.9905,0,U,46504,999,32075,.20436296E-3,.9489E-4,0
NETSAT-3,2020-068V,2026-07-19T17:54:16.864128,15.43703581,.0004395,97.8662,209.8063,192.4059,167.7080,0,U,46505,999,32070,.22498E-3,.10058E-3,0
NETSAT-1,2020-068W,2026-07-19T11:15:06.507648,15.35303723,.00027121,97.8761,203.4484,237.4544,122.6437,0,U,46506,999,32025,.19178306E-3,.6485E-4,0
NETSAT-2,2020-068X,2026-07-19T20:04:28.379712,15.47290720,.0002835,97.8622,211.7484,189.2598,170.8598,0,U,46507,999,32078,.27168E-3,.1376E-3,0
GREENCUBE (IO-117),2022-080E,2026-07-19T05:53:22.496064,6.42583325,.00090857,70.1403,287.0980,282.5487,77.4156,0,U,53109,999,9412,0,-.3E-7,0
SITRO-AIS 5 (KATYS),2023-091L,2026-07-19T20:09:35.836704,15.30123138,.0010148,97.5037,265.0630,355.6027,4.5122,0,U,57176,999,16933,.21363E-3,.6157E-4,0
SITRO-AIS 6 (CHIRKIN),2023-091AC,2026-07-19T19:55:12.779328,15.26485565,.0010694,97.5046,263.9957,0.1260,359.9979,0,U,57192,999,16926,.19805E-3,.51E-4,0
SITRO-AIS 8 (ANOKHIN),2023-091AD,2026-07-19T20:43:54.639840,15.32928547,.000903,97.5033,266.8121,350.7115,9.3958,0,U,57193,999,16945,.24401E-3,.7689E-4,0
SITRO-AIS 7 (FARTUSHNIY),2023-091AE,2026-07-19T20:09:35.498016,15.26158099,.0010657,97.5041,263.8134,1.4852,358.6415,0,U,57194,999,16925,.19469E-3,.4962E-4,0
SITRO-AIS 10 (BURDAEV),2023-091AK,2026-07-19T19:39:52.984800,15.39730594,.0004512,97.5058,272.1670,320.4937,39.5979,0,U,57199,999,16978,.28165E-3,.11058E-3,0
SITRO-AIS 9 (SHCHUKIN),2023-091AM,2026-07-19T20:33:17.055360,15.39214149,.0004779,97.5057,271.9086,320.8511,39.2388,0,U,57201,999,16977,.27811E-3,.10735E-3,0
SITRO-AIS 12 (SMIRENNIY),2023-091AQ,2026-07-19T20:10:48.492192,15.39510240,.0004405,97.5070,272.3805,312.5560,47.5313,0,U,57204,999,16979,.28293E-3,.11029E-3,0
SITRO-AIS 11 (SHEFFER),2023-091AU,2026-07-19T20:16:49.331424,15.39957442,.0004334,97.5069,272.6523,311.9114,48.1761,0,U,57208,999,16981,.28231E-3,.11168E-3,0
SITRO-AIS 25,2024-039R,2026-07-19T20:51:55.970784,14.93657986,.0143181,95.3889,257.5505,213.0006,146.2224,0,U,59066,999,12960,.10547E-3,.1328E-4,0
SITRO-AIS 26,2024-039S,2026-07-19T21:00:24.388128,14.93449153,.0143513,95.3890,257.4454,213.5976,145.6088,0,U,59067,999,12959,.10593E-3,.1328E-4,0
SITRO-AIS 27,2024-039T,2026-07-19T20:04:17.177088,14.93873724,.0142634,95.3893,257.7057,212.2551,146.9894,0,U,59068,999,12961,.14599E-3,.1861E-4,0
SITRO-AIS 28,2024-039U,2026-07-19T21:07:11.974080,14.93908012,.014251,95.3893,257.7848,211.9359,147.3171,0,U,59071,999,12962,.11065E-3,.1402E-4,0
GRBBETA,2024-128C,2026-07-19T19:18:47.236032,15.06826059,.0036461,61.9889,101.8102,141.7044,218.6649,0,U,60237,999,11118,.12609E-3,.1694E-4,0
OOV-CUBE (TUBSAT-30),2024-128F,2026-07-19T17:23:46.798080,15.02883931,.0040527,61.9942,112.1057,141.0093,219.3932,0,U,60240,999,11100,.7905E-4,.867E-5,0
ROBUSTA-3A (MEDITERRANEE),2024-128J,2026-07-19T19:23:10.402656,15.12023729,.0037484,61.9861,92.8547,134.5709,225.8458,0,U,60243,999,11135,.22927E-3,.3795E-4,0
LASARSAT,2024-247Q,2026-07-19T16:58:19.316064,15.48233791,.0008114,44.9738,79.2000,194.5262,165.5396,0,U,62391,999,8835,.37176E-3,.1974E-3,0
CROCUBE,2024-247T,2026-07-18T22:53:00.364416,15.50381393,.00081477,44.9710,80.2241,196.1185,163.9448,0,U,62394,999,8827,.43401259E-3,.24965E-3,0
FORESAIL-1 PRIME,2025-276DS,2026-07-19T17:45:13.804704,15.18959707,.0002501,97.4184,273.4181,34.1668,325.9727,0,U,66778,999,3534,.11246E-3,.2283E-4,0
KNACKSAT-2,1998-067XZ,2026-07-19T05:22:27.952032,15.62683564,.00081481,51.6273,132.9886,342.4900,17.5813,0,U,67683,999,2528,.37973859E-3,.34381E-3,0
